STARLINK-34650          
1 66258U 25245AA  25332.39118663  .01448251  00000+0  21039-1 0  9997
2 66258  53.1602  36.7957 0014581 242.3506 117.6025 15.52538985  5710
STARLINK-35529          
1 66259U 25245AB  25332.51936629  .00092434  00000+0  16491-2 0  9996
2 66259  53.1612  36.1761 0001016  71.0639 289.0480 15.49332591  5734
STARLINK-35420          
1 66260U 25245AC  25332.45520258  .00071138  00000+0  12749-2 0  9998
2 66260  53.1613  36.4881 0001371  48.4538 311.6589 15.49321372  5729
STARLINK-35536          
1 66261U 25245AD  25332.39000855  .00255040  00000+0  44471-2 0  9991
2 66261  53.1618  36.7888 0001390  63.5278 296.5874 15.49299315  5713
STARLINK-35487          
1 66262U 25245AE  25332.45417289  .00088397  00000+0  15792-2 0  9995
2 66262  53.1617  36.4801 0001143  81.3533 278.7605 15.49314651  5673
STARLINK-35801          
1 66265U 25247A   25332.62216548  .00046732  00000+0  11706-2 0  9992
2 66265  53.1594 304.1695 0001225  86.0675 274.0470 15.39633497  5519
STARLINK-35056          
1 66266U 25247B   25332.62182392  .00034623  00000+0  87155-3 0  9990
2 66266  53.1598 304.1666 0001433  78.7281 281.3885 15.39622648  5511
STARLINK-35550          
1 66267U 25247C   25332.66668981  .00050953  00000+0  12779-2 0  9991
2 66267  53.1589 302.5344 0000997 100.8788 123.3599 15.39559050  5300
STARLINK-35069          
1 66268U 25247D   25332.55260145  .00038159  00000+0  95899-3 0  9999
2 66268  53.1597 304.4439 0001304  72.6288 287.4859 15.39625817  5508
STARLINK-34910          
1 66269U 25247E   25332.66668981  .00024405  00000+0  61887-3 0  9991
2 66269  53.1589 302.5383 0001341  80.3178 142.1172 15.39584616  5621
STARLINK-35757          
1 66270U 25247F   25332.55226578  .00041575  00000+0  10434-2 0  9991
2 66270  53.1596 304.4422 0001382  76.9299 283.1860 15.39627505  5553
STARLINK-35745          
1 66271U 25247G   25332.41812601  .00039333  00000+0  98703-3 0  9990
2 66271  53.1596 305.0266 0001387 102.2621 257.8539 15.39656871  5531
