CCSDS_OMM_VERS = 2.0
CREATION_DATE  = 
ORIGINATOR     = 

OBJECT_NAME    = STARLINK-34650
OBJECT_ID      = 2025-245AA
CENTER_NAME    = EARTH
REF_FRAME      = TEME
TIME_SYSTEM    = UTC
MEAN_ELEMENT_THEORY = SGP/SGP4

EPOCH          = 2025-11-28T09:23:18.524832
MEAN_MOTION    = 15.52538985
ECCENTRICITY   = .00145816
INCLINATION    = 53.1602
RA_OF_ASC_NODE = 36.7957
ARG_OF_PERICENTER = 242.3506
MEAN_ANOMALY   = 117.6025

EPHEMERIS_TYPE = 0
CLASSIFICATION_TYPE = U
NORAD_CAT_ID   = 66258
ELEMENT_SET_NO = 999
REV_AT_EPOCH   = 571
BSTAR          = .21039428E-1
MEAN_MOTION_DOT = .1448251E-1
MEAN_MOTION_DDOT = 0

CCSDS_OMM_VERS = 2.0
CREATION_DATE  = 
ORIGINATOR     = 

OBJECT_NAME    = STARLINK-35529
OBJECT_ID      = 2025-245AB
CENTER_NAME    = EARTH
REF_FRAME      = TEME
TIME_SYSTEM    = UTC
MEAN_ELEMENT_THEORY = SGP/SGP4

EPOCH          = 2025-11-28T12:27:53.247456
MEAN_MOTION    = 15.49332591
ECCENTRICITY   = .0001016
INCLINATION    = 53.1612
RA_OF_ASC_NODE = 36.1761
ARG_OF_PERICENTER = 71.0639
MEAN_ANOMALY   = 289.0480

EPHEMERIS_TYPE = 0
CLASSIFICATION_TYPE = U
NORAD_CAT_ID   = 66259
ELEMENT_SET_NO = 999
REV_AT_EPOCH   = 573
BSTAR          = .16490586E-2
MEAN_MOTION_DOT = .92434E-3
MEAN_MOTION_DDOT = 0

CCSDS_OMM_VERS = 2.0
CREATION_DATE  = 
ORIGINATOR     = 

OBJECT_NAME    = STARLINK-35420
OBJECT_ID      = 2025-245AC
CENTER_NAME    = EARTH
REF_FRAME      = TEME
TIME_SYSTEM    = UTC
MEAN_ELEMENT_THEORY = SGP/SGP4

EPOCH          = 2025-11-28T10:55:29.502912
MEAN_MOTION    = 15.49321372
ECCENTRICITY   = .00013712
INCLINATION    = 53.1613
RA_OF_ASC_NODE = 36.4881
ARG_OF_PERICENTER = 48.4538
MEAN_ANOMALY   = 311.6589

EPHEMERIS_TYPE = 0
CLASSIFICATION_TYPE = U
NORAD_CAT_ID   = 66260
ELEMENT_SET_NO = 999
REV_AT_EPOCH   = 572
BSTAR          = .12749398E-2
MEAN_MOTION_DOT = .71138E-3
MEAN_MOTION_DDOT = 0

CCSDS_OMM_VERS = 2.0
CREATION_DATE  = 
ORIGINATOR     = 

OBJECT_NAME    = STARLINK-35536
OBJECT_ID      = 2025-245AD
CENTER_NAME    = EARTH
REF_FRAME      = TEME
TIME_SYSTEM    = UTC
MEAN_ELEMENT_THEORY = SGP/SGP4

EPOCH          = 2025-11-28T09:21:36.738720
MEAN_MOTION    = 15.49299315
ECCENTRICITY   = .00013907
INCLINATION    = 53.1618
RA_OF_ASC_NODE = 36.7888
ARG_OF_PERICENTER = 63.5278
MEAN_ANOMALY   = 296.5874

EPHEMERIS_TYPE = 0
CLASSIFICATION_TYPE = U
NORAD_CAT_ID   = 66261
ELEMENT_SET_NO = 999
REV_AT_EPOCH   = 571
BSTAR          = .44471168E-2
MEAN_MOTION_DOT = .25504E-2
MEAN_MOTION_DDOT = 0

CCSDS_OMM_VERS = 2.0
CREATION_DATE  = 
ORIGINATOR     = 

OBJECT_NAME    = STARLINK-35487
OBJECT_ID      = 2025-245AE
CENTER_NAME    = EARTH
REF_FRAME      = TEME
TIME_SYSTEM    = UTC
MEAN_ELEMENT_THEORY = SGP/SGP4

EPOCH          = 2025-11-28T10:54:00.537696
MEAN_MOTION    = 15.49314651
ECCENTRICITY   = .00011431
INCLINATION    = 53.1617
RA_OF_ASC_NODE = 36.4801
ARG_OF_PERICENTER = 81.3533
MEAN_ANOMALY   = 278.7605

EPHEMERIS_TYPE = 0
CLASSIFICATION_TYPE = U
NORAD_CAT_ID   = 66262
ELEMENT_SET_NO = 999
REV_AT_EPOCH   = 567
BSTAR          = .15791994E-2
MEAN_MOTION_DOT = .88397E-3
MEAN_MOTION_DDOT = 0

CCSDS_OMM_VERS = 2.0
CREATION_DATE  = 
ORIGINATOR     = 

OBJECT_NAME    = STARLINK-35801
OBJECT_ID      = 2025-247A
CENTER_NAME    = EARTH
REF_FRAME      = TEME
TIME_SYSTEM    = UTC
MEAN_ELEMENT_THEORY = SGP/SGP4

EPOCH          = 2025-11-28T14:55:55.097472
MEAN_MOTION    = 15.39633497
ECCENTRICITY   = .00012252
INCLINATION    = 53.1594
RA_OF_ASC_NODE = 304.1695
ARG_OF_PERICENTER = 86.0675
MEAN_ANOMALY   = 274.0470

EPHEMERIS_TYPE = 0
CLASSIFICATION_TYPE = U
NORAD_CAT_ID   = 66265
ELEMENT_SET_NO = 999
REV_AT_EPOCH   = 551
BSTAR          = .1170617E-2
MEAN_MOTION_DOT = .46732E-3
MEAN_MOTION_DDOT = 0

CCSDS_OMM_VERS = 2.0
CREATION_DATE  = 
ORIGINATOR     = 

OBJECT_NAME    = STARLINK-35056
OBJECT_ID      = 2025-247B
CENTER_NAME    = EARTH
REF_FRAME      = TEME
TIME_SYSTEM    = UTC
MEAN_ELEMENT_THEORY = SGP/SGP4

EPOCH          = 2025-11-28T14:55:25.586688
MEAN_MOTION    = 15.39622648
ECCENTRICITY   = .00014338
INCLINATION    = 53.1598
RA_OF_ASC_NODE = 304.1666
ARG_OF_PERICENTER = 78.7281
MEAN_ANOMALY   = 281.3885

EPHEMERIS_TYPE = 0
CLASSIFICATION_TYPE = U
NORAD_CAT_ID   = 66266
ELEMENT_SET_NO = 999
REV_AT_EPOCH   = 551
BSTAR          = .87155477E-3
MEAN_MOTION_DOT = .34623E-3
MEAN_MOTION_DDOT = 0

CCSDS_OMM_VERS = 2.0
CREATION_DATE  = 
ORIGINATOR     = 

OBJECT_NAME    = STARLINK-35550
OBJECT_ID      = 2025-247C
CENTER_NAME    = EARTH
REF_FRAME      = TEME
TIME_SYSTEM    = UTC
MEAN_ELEMENT_THEORY = SGP/SGP4

EPOCH          = 2025-11-28T16:00:01.999584
MEAN_MOTION    = 15.39559050
ECCENTRICITY   = .00009979
INCLINATION    = 53.1589
RA_OF_ASC_NODE = 302.5344
ARG_OF_PERICENTER = 100.8788
MEAN_ANOMALY   = 123.3599

EPHEMERIS_TYPE = 0
CLASSIFICATION_TYPE = U
NORAD_CAT_ID   = 66267
ELEMENT_SET_NO = 999
REV_AT_EPOCH   = 530
BSTAR          = .1277861E-2
MEAN_MOTION_DOT = .50953E-3
MEAN_MOTION_DDOT = 0

CCSDS_OMM_VERS = 2.0
CREATION_DATE  = 
ORIGINATOR     = 

OBJECT_NAME    = STARLINK-35069
OBJECT_ID      = 2025-247D
CENTER_NAME    = EARTH
REF_FRAME      = TEME
TIME_SYSTEM    = UTC
MEAN_ELEMENT_THEORY = SGP/SGP4

EPOCH          = 2025-11-28T13:15:44.765280
MEAN_MOTION    = 15.39625817
ECCENTRICITY   = .00013047
INCLINATION    = 53.1597
RA_OF_ASC_NODE = 304.4439
ARG_OF_PERICENTER = 72.6288
MEAN_ANOMALY   = 287.4859

EPHEMERIS_TYPE = 0
CLASSIFICATION_TYPE = U
NORAD_CAT_ID   = 66268
ELEMENT_SET_NO = 999
REV_AT_EPOCH   = 550
BSTAR          = .95899195E-3
MEAN_MOTION_DOT = .38159E-3
MEAN_MOTION_DDOT = 0

CCSDS_OMM_VERS = 2.0
CREATION_DATE  = 
ORIGINATOR     = 

OBJECT_NAME    = STARLINK-34910
OBJECT_ID      = 2025-247E
CENTER_NAME    = EARTH
REF_FRAME      = TEME
TIME_SYSTEM    = UTC
MEAN_ELEMENT_THEORY = SGP/SGP4

EPOCH          = 2025-11-28T16:00:01.999584
MEAN_MOTION    = 15.39584616
ECCENTRICITY   = .00013419
INCLINATION    = 53.1589
RA_OF_ASC_NODE = 302.5383
ARG_OF_PERICENTER = 80.3178
MEAN_ANOMALY   = 142.1172

EPHEMERIS_TYPE = 0
CLASSIFICATION_TYPE = U
NORAD_CAT_ID   = 66269
ELEMENT_SET_NO = 999
REV_AT_EPOCH   = 562
BSTAR          = .61887159E-3
MEAN_MOTION_DOT = .24405E-3
MEAN_MOTION_DDOT = 0

CCSDS_OMM_VERS = 2.0
CREATION_DATE  = 
ORIGINATOR     = 

OBJECT_NAME    = STARLINK-35757
OBJECT_ID      = 2025-247F
CENTER_NAME    = EARTH
REF_FRAME      = TEME
TIME_SYSTEM    = UTC
MEAN_ELEMENT_THEORY = SGP/SGP4

EPOCH          = 2025-11-28T13:15:15.763392
MEAN_MOTION    = 15.39627505
ECCENTRICITY   = .00013829
INCLINATION    = 53.1596
RA_OF_ASC_NODE = 304.4422
ARG_OF_PERICENTER = 76.9299
MEAN_ANOMALY   = 283.1860

EPHEMERIS_TYPE = 0
CLASSIFICATION_TYPE = U
NORAD_CAT_ID   = 66270
ELEMENT_SET_NO = 999
REV_AT_EPOCH   = 555
BSTAR          = .10434388E-2
MEAN_MOTION_DOT = .41575E-3
MEAN_MOTION_DDOT = 0

CCSDS_OMM_VERS = 2.0
CREATION_DATE  = 
ORIGINATOR     = 

OBJECT_NAME    = STARLINK-35745
OBJECT_ID      = 2025-247G
CENTER_NAME    = EARTH
REF_FRAME      = TEME
TIME_SYSTEM    = UTC
MEAN_ELEMENT_THEORY = SGP/SGP4

EPOCH          = 2025-11-28T10:02:06.087264
MEAN_MOTION    = 15.39656871
ECCENTRICITY   = .00013876
INCLINATION    = 53.1596
RA_OF_ASC_NODE = 305.0266
ARG_OF_PERICENTER = 102.2621
MEAN_ANOMALY   = 257.8539

EPHEMERIS_TYPE = 0
CLASSIFICATION_TYPE = U
NORAD_CAT_ID   = 66271
ELEMENT_SET_NO = 999
REV_AT_EPOCH   = 553
BSTAR          = .98703386E-3
MEAN_MOTION_DOT = .39333E-3
MEAN_MOTION_DDOT = 0

